{
  "type": "FeatureCollection",
  "features": [
    {
      "type": "Feature",
      "properties": {
        "norad_id": 38832,
        "name": "FENGYUN 1C DEB",
        "group": "fengyun-1c-debris",
        "lat": -77.86413749093377,
        "lon": 157.79084123733708,
        "alt_km": 939.2828345544003,
        "timestamp": "2025-12-08T21:31:04.957809+00:00",
        "meta_object_name": "FENGYUN 1C DEB",
        "meta_object_id": "1999-025EVY",
        "meta_epoch": "2025-12-06T01:35:41.081280",
        "meta_mean_motion": 14.04461067,
        "meta_eccentricity": 0.00842955,
        "meta_inclination": 99.2666,
        "meta_ra_of_asc_node": 24.2995,
        "meta_arg_of_pericenter": 61.4582,
        "meta_mean_anomaly": 299.5038,
        "meta_ephemeris_type": 0,
        "meta_classification_type": "U",
        "meta_norad_cat_id": 38832,
        "meta_element_set_no": 999,
        "meta_rev_at_epoch": 63664,
        "meta_bstar": 0.0018423355,
        "meta_mean_motion_dot": 2.987e-05,
        "meta_mean_motion_ddot": 0,
        "tle_line1": "1 38832U 99025EVY 25340.06644770  .00002987  00000+0  18423-2 0  9992",
        "tle_line2": "2 38832  99.2666  24.2995 0084295  61.4582 299.5038 14.04461067636643"
      },
      "geometry": {
        "type": "Point",
        "coordinates": [
          157.79084123733708,
          -77.86413749093377
        ]
      }
    },
    {
      "type": "Feature",
      "properties": {
        "norad_id": 39537,
        "name": "FENGYUN 1C DEB",
        "group": "fengyun-1c-debris",
        "lat": 29.43419983104859,
        "lon": 123.52165336367143,
        "alt_km": 845.0241926603394,
        "timestamp": "2025-12-08T21:31:04.957819+00:00",
        "meta_object_name": "FENGYUN 1C DEB",
        "meta_object_id": "1999-025EWE",
        "meta_epoch": "2025-12-07T15:53:13.319808",
        "meta_mean_motion": 13.84149278,
        "meta_eccentricity": 0.0177643,
        "meta_inclination": 99.1533,
        "meta_ra_of_asc_node": 127.5381,
        "meta_arg_of_pericenter": 354.643,
        "meta_mean_anomaly": 5.2821,
        "meta_ephemeris_type": 0,
        "meta_classification_type": "U",
        "meta_norad_cat_id": 39537,
        "meta_element_set_no": 999,
        "meta_rev_at_epoch": 59186,
        "meta_bstar": 0.0018494787,
        "meta_mean_motion_dot": 2.285e-05,
        "meta_mean_motion_ddot": 0,
        "tle_line1": "1 39537U 99025EWE 25341.66195972  .00002285  00000+0  18495-2 0  9997",
        "tle_line2": "2 39537  99.1533 127.5381 0177643 354.6430   5.2821 13.84149278591863"
      },
      "geometry": {
        "type": "Point",
        "coordinates": [
          123.52165336367143,
          29.43419983104859
        ]
      }
    },
    {
      "type": "Feature",
      "properties": {
        "norad_id": 39541,
        "name": "FENGYUN 1C DEB",
        "group": "fengyun-1c-debris",
        "lat": -30.214411578337867,
        "lon": 30.18191287237431,
        "alt_km": 851.0132503576187,
        "timestamp": "2025-12-08T21:31:04.957829+00:00",
        "meta_object_name": "FENGYUN 1C DEB",
        "meta_object_id": "1999-025EWJ",
        "meta_epoch": "2025-11-26T08:43:14.269440",
        "meta_mean_motion": 14.20329557,
        "meta_eccentricity": 0.00721468,
        "meta_inclination": 98.6819,
        "meta_ra_of_asc_node": 12.7746,
        "meta_arg_of_pericenter": 119.8468,
        "meta_mean_anomaly": 240.9905,
        "meta_ephemeris_type": 0,
        "meta_classification_type": "U",
        "meta_norad_cat_id": 39541,
        "meta_element_set_no": 999,
        "meta_rev_at_epoch": 58770,
        "meta_bstar": 0.00069059031,
        "meta_mean_motion_dot": 1.475e-05,
        "meta_mean_motion_ddot": 0,
        "tle_line1": "1 39541U 99025EWJ 25330.36335960  .00001475  00000+0  69059-3 0  9993",
        "tle_line2": "2 39541  98.6819  12.7746 0072146 119.8468 240.9905 14.20329557587703"
      },
      "geometry": {
        "type": "Point",
        "coordinates": [
          30.18191287237431,
          -30.214411578337867
        ]
      }
    },
    {
      "type": "Feature",
      "properties": {
        "norad_id": 39543,
        "name": "FENGYUN 1C DEB",
        "group": "fengyun-1c-debris",
        "lat": 65.14863244645277,
        "lon": -146.91527485333083,
        "alt_km": 794.7146981661872,
        "timestamp": "2025-12-08T21:31:04.957839+00:00",
        "meta_object_name": "FENGYUN 1C DEB",
        "meta_object_id": "1999-025EWL",
        "meta_epoch": "2025-12-08T08:41:48.228000",
        "meta_mean_motion": 13.70176184,
        "meta_eccentricity": 0.03394165,
        "meta_inclination": 99.0442,
        "meta_ra_of_asc_node": 12.4676,
        "meta_arg_of_pericenter": 153.6419,
        "meta_mean_anomaly": 208.2449,
        "meta_ephemeris_type": 0,
        "meta_classification_type": "U",
        "meta_norad_cat_id": 39543,
        "meta_element_set_no": 999,
        "meta_rev_at_epoch": 49125,
        "meta_bstar": 0.0015075261,
        "meta_mean_motion_dot": 1.956e-05,
        "meta_mean_motion_ddot": 0,
        "tle_line1": "1 39543U 99025EWL 25342.36236375  .00001956  00000+0  15075-2 0  9990",
        "tle_line2": "2 39543  99.0442  12.4676 0339416 153.6419 208.2449 13.70176184491253"
      },
      "geometry": {
        "type": "Point",
        "coordinates": [
          -146.91527485333083,
          65.14863244645277
        ]
      }
    },
    {
      "type": "Feature",
      "properties": {
        "norad_id": 39544,
        "name": "FENGYUN 1C DEB",
        "group": "fengyun-1c-debris",
        "lat": 38.36670102019325,
        "lon": -144.82357120512333,
        "alt_km": 834.2694885631363,
        "timestamp": "2025-12-08T21:31:04.957850+00:00",
        "meta_object_name": "FENGYUN 1C DEB",
        "meta_object_id": "1999-025EWM",
        "meta_epoch": "2025-12-08T09:22:33.750624",
        "meta_mean_motion": 14.05512501,
        "meta_eccentricity": 0.00547745,
        "meta_inclination": 98.7418,
        "meta_ra_of_asc_node": 221.6849,
        "meta_arg_of_pericenter": 21.3384,
        "meta_mean_anomaly": 339.0051,
        "meta_ephemeris_type": 0,
        "meta_classification_type": "U",
        "meta_norad_cat_id": 39544,
        "meta_element_set_no": 999,
        "meta_rev_at_epoch": 56794,
        "meta_bstar": 0.00088149338,
        "meta_mean_motion_dot": 1.41e-05,
        "meta_mean_motion_ddot": 0,
        "tle_line1": "1 39544U 99025EWM 25342.39066841  .00001410  00000+0  88149-3 0  9991",
        "tle_line2": "2 39544  98.7418 221.6849 0054774  21.3384 339.0051 14.05512501567940"
      },
      "geometry": {
        "type": "Point",
        "coordinates": [
          -144.82357120512333,
          38.36670102019325
        ]
      }
    },
    {
      "type": "Feature",
      "properties": {
        "norad_id": 40688,
        "name": "FENGYUN 1C DEB",
        "group": "fengyun-1c-debris",
        "lat": -66.47761779371194,
        "lon": 153.88958443894253,
        "alt_km": 991.9660002138844,
        "timestamp": "2025-12-08T21:31:04.957860+00:00",
        "meta_object_name": "FENGYUN 1C DEB",
        "meta_object_id": "1999-025EWU",
        "meta_epoch": "2025-11-28T15:26:17.467872",
        "meta_mean_motion": 13.83811366,
        "meta_eccentricity": 0.01426841,
        "meta_inclination": 98.9673,
        "meta_ra_of_asc_node": 122.8373,
        "meta_arg_of_pericenter": 69.4473,
        "meta_mean_anomaly": 292.1926,
        "meta_ephemeris_type": 0,
        "meta_classification_type": "U",
        "meta_norad_cat_id": 40688,
        "meta_element_set_no": 999,
        "meta_rev_at_epoch": 29722,
        "meta_bstar": 0.00038169517,
        "meta_mean_motion_dot": 4.17e-06,
        "meta_mean_motion_ddot": 0,
        "tle_line1": "1 40688U 99025EWU 25332.64325773  .00000417  00000+0  38170-3 0  9996",
        "tle_line2": "2 40688  98.9673 122.8373 0142684  69.4473 292.1926 13.83811366297227"
      },
      "geometry": {
        "type": "Point",
        "coordinates": [
          153.88958443894253,
          -66.47761779371194
        ]
      }
    },
    {
      "type": "Feature",
      "properties": {
        "norad_id": 40689,
        "name": "FENGYUN 1C DEB",
        "group": "fengyun-1c-debris",
        "lat": -69.25525703938558,
        "lon": -73.80586108864715,
        "alt_km": 1255.1426075743248,
        "timestamp": "2025-12-08T21:31:04.957870+00:00",
        "meta_object_name": "FENGYUN 1C DEB",
        "meta_object_id": "1999-025EWV",
        "meta_epoch": "2025-12-08T00:46:07.511232",
        "meta_mean_motion": 13.64679395,
        "meta_eccentricity": 0.03101306,
        "meta_inclination": 99.1251,
        "meta_ra_of_asc_node": 260.272,
        "meta_arg_of_pericenter": 113.5696,
        "meta_mean_anomaly": 249.8343,
        "meta_ephemeris_type": 0,
        "meta_classification_type": "U",
        "meta_norad_cat_id": 40689,
        "meta_element_set_no": 999,
        "meta_rev_at_epoch": 54819,
        "meta_bstar": 0.0018824764,
        "meta_mean_motion_dot": 2.064e-05,
        "meta_mean_motion_ddot": 0,
        "tle_line1": "1 40689U 99025EWV 25342.03203138  .00002064  00000+0  18825-2 0  9995",
        "tle_line2": "2 40689  99.1251 260.2720 0310130 113.5696 249.8343 13.64679395548197"
      },
      "geometry": {
        "type": "Point",
        "coordinates": [
          -73.80586108864715,
          -69.25525703938558
        ]
      }
    }
  ]
}